{
  "type": "FeatureCollection",
  "features": [
    {
      "type": "Feature",
      "properties": {
        "norad_id": 34913,
        "name": "COSMOS 2251 DEB",
        "group": "cosmos-2251-debris",
        "lat": -62.049109539607,
        "lon": -93.6795835473734,
        "alt_km": 789.9527617388976,
        "timestamp": "2025-12-03T17:47:51.113801+00:00",
        "meta_object_name": "COSMOS 2251 DEB",
        "meta_object_id": "1993-036ADJ",
        "meta_epoch": "2025-12-02T16:08:10.454208",
        "meta_mean_motion": 14.34632081,
        "meta_eccentricity": 0.00200026,
        "meta_inclination": 74.0276,
        "meta_ra_of_asc_node": 300.9473,
        "meta_arg_of_pericenter": 54.1655,
        "meta_mean_anomaly": 119.3628,
        "meta_ephemeris_type": 0,
        "meta_classification_type": "U",
        "meta_norad_cat_id": 34913,
        "meta_element_set_no": 999,
        "meta_rev_at_epoch": 65043,
        "meta_bstar": 7.0680463e-05,
        "meta_mean_motion_dot": 1.74e-06,
        "meta_mean_motion_ddot": 0,
        "tle_line1": "1 34913U 93036ADJ 25336.67234322  .00000174  00000+0  70680-4 0  9995",
        "tle_line2": "2 34913  74.0276 300.9473 0020002  54.1655 119.3628 14.34632081650434"
      },
      "geometry": {
        "type": "Point",
        "coordinates": [
          -93.6795835473734,
          -62.049109539607
        ]
      }
    },
    {
      "type": "Feature",
      "properties": {
        "norad_id": 34918,
        "name": "COSMOS 2251 DEB",
        "group": "cosmos-2251-debris",
        "lat": -52.14375415874554,
        "lon": -50.76403998737663,
        "alt_km": 672.8558591131114,
        "timestamp": "2025-12-03T17:47:51.113811+00:00",
        "meta_object_name": "COSMOS 2251 DEB",
        "meta_object_id": "1993-036ADP",
        "meta_epoch": "2025-12-02T07:49:20.078112",
        "meta_mean_motion": 14.60858458,
        "meta_eccentricity": 0.0034182,
        "meta_inclination": 74.0712,
        "meta_ra_of_asc_node": 333.4916,
        "meta_arg_of_pericenter": 302.4495,
        "meta_mean_anomaly": 120.4085,
        "meta_ephemeris_type": 0,
        "meta_classification_type": "U",
        "meta_norad_cat_id": 34918,
        "meta_element_set_no": 999,
        "meta_rev_at_epoch": 65184,
        "meta_bstar": 0.0024749,
        "meta_mean_motion_dot": 0.00012194,
        "meta_mean_motion_ddot": 0,
        "tle_line1": "1 34918U 93036ADP 25336.32592683  .00012194  00000+0  24749-2 0  9997",
        "tle_line2": "2 34918  74.0712 333.4916 0034182 302.4495 120.4085 14.60858458651845"
      },
      "geometry": {
        "type": "Point",
        "coordinates": [
          -50.76403998737663,
          -52.14375415874554
        ]
      }
    },
    {
      "type": "Feature",
      "properties": {
        "norad_id": 34924,
        "name": "COSMOS 2251 DEB",
        "group": "cosmos-2251-debris",
        "lat": -22.357334682366997,
        "lon": 99.8542520110268,
        "alt_km": 730.053809364188,
        "timestamp": "2025-12-03T17:47:51.113822+00:00",
        "meta_object_name": "COSMOS 2251 DEB",
        "meta_object_id": "1993-036ADV",
        "meta_epoch": "2025-12-02T04:22:00.331392",
        "meta_mean_motion": 14.59847465,
        "meta_eccentricity": 0.0055391,
        "meta_inclination": 74.0396,
        "meta_ra_of_asc_node": 109.5877,
        "meta_arg_of_pericenter": 196.6336,
        "meta_mean_anomaly": 226.616,
        "meta_ephemeris_type": 0,
        "meta_classification_type": "U",
        "meta_norad_cat_id": 34924,
        "meta_element_set_no": 999,
        "meta_rev_at_epoch": 87569,
        "meta_bstar": 0.0014998,
        "meta_mean_motion_dot": 7.306e-05,
        "meta_mean_motion_ddot": 0,
        "tle_line1": "1 34924U 93036ADV 25336.18194828  .00007306  00000+0  14998-2 0  9991",
        "tle_line2": "2 34924  74.0396 109.5877 0055391 196.6336 226.6160 14.59847465875698"
      },
      "geometry": {
        "type": "Point",
        "coordinates": [
          99.8542520110268,
          -22.357334682366997
        ]
      }
    },
    {
      "type": "Feature",
      "properties": {
        "norad_id": 34944,
        "name": "COSMOS 2251 DEB",
        "group": "cosmos-2251-debris",
        "lat": 52.30191654031633,
        "lon": 46.09655147271835,
        "alt_km": 697.8107875969054,
        "timestamp": "2025-12-03T17:47:51.113832+00:00",
        "meta_object_name": "COSMOS 2251 DEB",
        "meta_object_id": "1993-036ADX",
        "meta_epoch": "2025-12-03T10:26:13.836768",
        "meta_mean_motion": 14.14147851,
        "meta_eccentricity": 0.0219699,
        "meta_inclination": 73.7497,
        "meta_ra_of_asc_node": 248.822,
        "meta_arg_of_pericenter": 98.0447,
        "meta_mean_anomaly": 264.5682,
        "meta_ephemeris_type": 0,
        "meta_classification_type": "U",
        "meta_norad_cat_id": 34944,
        "meta_element_set_no": 999,
        "meta_rev_at_epoch": 63951,
        "meta_bstar": 0.00087622,
        "meta_mean_motion_dot": 2.079e-05,
        "meta_mean_motion_ddot": 0,
        "tle_line1": "1 34944U 93036ADX 25337.43488237  .00002079  00000+0  87622-3 0  9999",
        "tle_line2": "2 34944  73.7497 248.8220 0219699  98.0447 264.5682 14.14147851639510"
      },
      "geometry": {
        "type": "Point",
        "coordinates": [
          46.09655147271835,
          52.30191654031633
        ]
      }
    },
    {
      "type": "Feature",
      "properties": {
        "norad_id": 34946,
        "name": "COSMOS 2251 DEB",
        "group": "cosmos-2251-debris",
        "lat": 59.69710849847558,
        "lon": 149.99917658154428,
        "alt_km": 648.9741552405758,
        "timestamp": "2025-12-03T17:47:51.113843+00:00",
        "meta_object_name": "COSMOS 2251 DEB",
        "meta_object_id": "1993-036ADZ",
        "meta_epoch": "2025-12-03T10:41:59.541792",
        "meta_mean_motion": 14.61913344,
        "meta_eccentricity": 0.004909,
        "meta_inclination": 74.0234,
        "meta_ra_of_asc_node": 359.9203,
        "meta_arg_of_pericenter": 139.9873,
        "meta_mean_anomaly": 220.4928,
        "meta_ephemeris_type": 0,
        "meta_classification_type": "U",
        "meta_norad_cat_id": 34946,
        "meta_element_set_no": 999,
        "meta_rev_at_epoch": 88073,
        "meta_bstar": 0.00076627,
        "meta_mean_motion_dot": 3.872e-05,
        "meta_mean_motion_ddot": 0,
        "tle_line1": "1 34946U 93036ADZ 25337.44582803  .00003872  00000+0  76627-3 0  9991",
        "tle_line2": "2 34946  74.0234 359.9203 0049090 139.9873 220.4928 14.61913344880730"
      },
      "geometry": {
        "type": "Point",
        "coordinates": [
          149.99917658154428,
          59.69710849847558
        ]
      }
    },
    {
      "type": "Feature",
      "properties": {
        "norad_id": 34949,
        "name": "COSMOS 2251 DEB",
        "group": "cosmos-2251-debris",
        "lat": -12.677479640885275,
        "lon": 123.5364223677072,
        "alt_km": 635.4587956139503,
        "timestamp": "2025-12-03T17:47:51.113854+00:00",
        "meta_object_name": "COSMOS 2251 DEB",
        "meta_object_id": "1993-036AEC",
        "meta_epoch": "2025-12-03T03:11:45.204576",
        "meta_mean_motion": 14.73888049,
        "meta_eccentricity": 0.00804743,
        "meta_inclination": 74.0167,
        "meta_ra_of_asc_node": 128.421,
        "meta_arg_of_pericenter": 275.6913,
        "meta_mean_anomaly": 83.5088,
        "meta_ephemeris_type": 0,
        "meta_classification_type": "U",
        "meta_norad_cat_id": 34949,
        "meta_element_set_no": 999,
        "meta_rev_at_epoch": 88220,
        "meta_bstar": 0.00069404332,
        "meta_mean_motion_dot": 4.76e-05,
        "meta_mean_motion_ddot": 0,
        "tle_line1": "1 34949U 93036AEC 25337.13316209  .00004760  00000+0  69404-3 0  9997",
        "tle_line2": "2 34949  74.0167 128.4210 0080474 275.6913  83.5088 14.73888049882204"
      },
      "geometry": {
        "type": "Point",
        "coordinates": [
          123.5364223677072,
          -12.677479640885275
        ]
      }
    },
    {
      "type": "Feature",
      "properties": {
        "norad_id": 34953,
        "name": "COSMOS 2251 DEB",
        "group": "cosmos-2251-debris",
        "lat": 51.39126126831319,
        "lon": -156.07511031425852,
        "alt_km": 656.6155308481957,
        "timestamp": "2025-12-03T17:47:51.113865+00:00",
        "meta_object_name": "COSMOS 2251 DEB",
        "meta_object_id": "1993-036AEG",
        "meta_epoch": "2025-12-03T04:17:18.808224",
        "meta_mean_motion": 14.6881213,
        "meta_eccentricity": 0.00576151,
        "meta_inclination": 74.0941,
        "meta_ra_of_asc_node": 45.9321,
        "meta_arg_of_pericenter": 40.9172,
        "meta_mean_anomaly": 348.9233,
        "meta_ephemeris_type": 0,
        "meta_classification_type": "U",
        "meta_norad_cat_id": 34953,
        "meta_element_set_no": 999,
        "meta_rev_at_epoch": 87988,
        "meta_bstar": 0.0010926794,
        "meta_mean_motion_dot": 6.516e-05,
        "meta_mean_motion_ddot": 0,
        "tle_line1": "1 34953U 93036AEG 25337.17868991  .00006516  00000+0  10927-2 0  9992",
        "tle_line2": "2 34953  74.0941  45.9321 0057615  40.9172 348.9233 14.68812130879888"
      },
      "geometry": {
        "type": "Point",
        "coordinates": [
          -156.07511031425852,
          51.39126126831319
        ]
      }
    }
  ]
}